C/2023 X1 (Leonard),e,110.5872,137.0118,321.4687,159.2138,0.0004906,0.99402985,0.0000,10/18.0732/2023,2000,g 13.5,3.2
# From MPEC 2024-DC6
C/2023 X2 (Lemmon),h,12/26.4359/2025,77.0002,66.3135,64.5398,1.001780,5.096084,2000,8.5,3.2
# From MPEC 2024-A43
P/2023 X3 (PANSTARRS),e,4.4834,62.0129,40.8202,4.245968,0.1126520,0.28634795,9.9181,07/19.0/2024,2000,g 15.5,4.0
# From MPEC 2024-JU4
C/2023 X4 (Hogan),e,11.5948,28.7658,100.5467,9.911303,0.0315870,0.63092371,1.7439,07/19.0/2024,2000,g 12.0,4.0
# From MPEC 2024-DA2
C/2023 X7 (PANSTARRS),h,05/14.8999/2025,69.0551,119.2081,354.3502,1.002368,4.820934,2000,9.0,4.0
# From MPEC 2024-JU4
P/2023 Y1 (Gibbs),e,6.3841,78.8563,51.4449,3.748727,0.1357933,0.44518438,31.5329,07/19.0/2024,2000,g 17.0,4.0
# From MPEC 2024-F34
P/2023 Y2 (Gibbs),e,6.9928,79.2289,16.8373,3.745348,0.1359771,0.39224579,46.7844,07/19.0/2024,2000,g 15.5,4.0
# From MPEC 2024-JU4
C/2024 A1 (ATLAS),h,06/13.6911/2025,94.4467,112.1411,353.3020,1.001356,3.875622,2000,7.0,4.0
# From MPEC 2024-JU4
C/2024 A2 (ATLAS),e,119.1117,78.1670,295.5823,32.36136,0.0053538,0.94185539,0.4341,07/19.0/2024,2000,g 12.5,4.0
# From MPEC 2024-D33
C/2024 B1 (Lemmon),h,10/07.7031/2024,70.9042,79.1875,66.2090,1.000894,1.633651,2000,13.0,4.0
# From MPEC 2024-GJ3
C/2024 B2 (Lemmon),e,99.8392,294.3784,130.3263,4885,0.0000029,0.99916546,0.0000,10/06.0642/2023,2000,g 11.5,4.0
# From MPEC 2024-M41
C/2024 C1 (PANSTARRS),e,14.2268,83.8110,94.4655,10.56197,0.0287135,0.58218634,358.7689,07/19.0/2024,2000,g 11.5,4.0
# From MPEC 2024-JU4
C/2024 C2 (PANSTARRS),e,27.2844,66.4419,87.5348,16.19107,0.0151283,0.44466732,356.4554,07/19.0/2024,2000,g  6.0,4.0
# From MPEC 2024-GJ3
C/2024 C3 (PANSTARRS),e,22.4635,359.7090,159.6478,11.64877,0.0247904,0.42375051,6.2957,07/19.0/2024,2000,g  9.0,4.0
# From MPEC 2024-NE4
C/2024 C4 (ATLAS),e,79.2868,220.6845,321.5204,83.97930,0.0012807,0.98248139,0.0000,01/30.1963/2024,2000,g 14.5,4.0
# From MPEC 2024-EG1
A/2024 D1,e,132.4520,179.6711,125.7346,1792,0.0000130,0.99625873,0.0000,12/04.9875/2027,2000,g 11.0,2.0
# From MPEC 2024-M41
C/2024 E1 (Wierzchos),h,01/20.7429/2026,75.2345,108.1055,243.6541,1.000020,0.565321,2000,7.0,4.0
# From MPEC 2024-JU4
C/2024 E2 (Bok),e,155.6487,135.6514,358.0522,51.75082,0.0026475,0.85135969,0.7121,07/19.0/2024,2000,g  8.0,4.0
# From MPEC 2024-JU4
P/2024 F1 (PANSTARRS),e,7.0054,251.5421,229.5447,3.442807,0.1542890,0.45985348,41.2485,07/19.0/2024,2000,g 16.0,4.0
# From MPEC 2024-NE4
C/2024 F2 (PANSTARRS),e,13.7408,138.9487,112.9223,9.950523,0.0314004,0.60119639,359.6787,07/19.0/2024,2000,g 11.0,4.0
# From MPEC 2024-NE4
P/2024 FG9 (Nanshan-Hahn),e,1.7312,253.0446,245.9105,3.256289,0.1677334,0.50975634,10.0061,07/19.0/2024,2000,g 14.0,4.0
# From MPEC 2024-NE4
C/2024 G1 (Wierzchos),e,95.4019,30.5924,128.2211,124.0459,0.0007134,0.96831406,359.9329,07/19.0/2024,2000,g 10.0,4.0
# From MPEC 2024-JU4
C/2024 G2 (ATLAS),e,122.1325,171.3925,328.7909,894.1450,0.0000369,0.99402153,0.0000,06/13.7923/2025,2000,g  7.0,4.0
# From MPEC 2024-NE4
C/2024 G3 (ATLAS),h,01/13.4277/2025,116.8493,220.3348,108.1264,1.000009,0.093500,2000,9.0,4.0
# From MPEC 2024-MB8
C/2024 G4 (PANSTARRS),e,33.0279,153.0005,131.4308,3080,0.0000058,0.99840904,0.0000,03/21.7772/2026,2000,g  8.0,4.0
# From MPEC 2024-JC6
C/2024 G5 (Leonard),e,50.3893,316.3988,209.5609,539.6196,0.0000786,0.99452789,0.0000,09/06.9945/2024,2000,g 13.0,4.0
# From MPEC 2024-N80
C/2024 G6 (ATLAS),h,02/20.6740/2026,120.4821,250.9391,23.4678,1.005514,6.428024,2000,5.5,4.0
# From MPEC 2024-NE4
C/2024 G7 (ATLAS),h,02/10.2178/2025,131.5189,191.9476,289.6543,1.001269,6.027782,2000,7.0,4.0
# From MPEC 2024-JU4
P/2024 J1 (PANSTARRS),e,13.1580,321.9532,200.3381,3.807788,0.1326463,0.30748956,33.2711,07/19.0/2024,2000,g 14.5,4.0
# From MPEC 2024-M41
C/2024 J2 (Wierzchos),e,79.3017,189.0666,143.1510,155.4132,0.0005087,0.98835087,0.0000,03/19.6726/2025,2000,g 11.5,4.0
# From MPEC 2024-NE4
C/2024 J3 (ATLAS),e,75.6028,285.9719,74.1062,6875,0.0000017,0.99943765,0.0000,11/25.9300/2026,2000,g  5.0,4.0
# From MPEC 2024-NE4
C/2024 J4 (Lemmon),e,117.5358,19.2940,127.8658,3241,0.0000053,0.99824283,0.0000,04/26.1761/2025,2000,g  8.0,4.0
# From MPEC 2024-LB4
P/2024 K1 (PANSTARRS),e,1.7861,251.6906,351.9672,6.847240,0.0550086,0.49526334,3.8975,07/19.0/2024,2000,g 13.5,4.0
# From MPEC 2024-NE4
C/2024 L1 (PANSTARRS),e,99.1725,45.1388,171.8411,11.45682,0.0254160,0.53323337,352.9184,07/19.0/2024,2000,g 10.0,4.0
# From MPEC 2024-NE4
C/2024 L2 (PANSTARRS),h,06/17.8177/2025,139.5781,266.1887,345.9062,1.001634,8.325654,2000,7.5,3.2
# From MPEC 2024-NA5
C/2024 L3 (PANSTARRS),h,11/25.9588/2023,111.5903,294.9749,59.2095,1.002354,6.859376,2000,9.0,4.0
# From MPEC 2024-NA6
P/2024 L4 (Rankin),e,10.0573,139.7719,53.7067,2.230559,0.2958582,0.69875829,28.3166,07/19.0/2024,2000,g 21.5,4.0
# From MPEC 2024-O16
C/2024 M1 (ATLAS),e,73.7100,76.2155,345.6052,29.82949,0.0060497,0.94289662,359.2496,07/19.0/2024,2000,g 12.0,4.0
# From MPEC 2024-NE4
C/2024 N1 (PANSTARRS),h,10/18.5413/2025,88.7757,323.0141,91.1994,1.002106,4.400318,2000,10.5,4.0
# From MPEC 2024-NE4
P/2024 N2 (PANSTARRS),e,7.7898,245.0462,48.8843,3.795856,0.1332722,0.35709681,6.5229,07/19.0/2024,2000,g 16.0,4.0
# From MPEC 2024-O11
C/2024 N3 (Sarneczky),h,04/11.2506/2025,88.7291,82.6090,86.8568,1.000720,5.015188,2000,8.0,4.0
# From  98, 1083
1P/Halley,e,162.2070,59.6955,112.6083,17.86707,0.0130504,0.96698885,182.9199,07/19.0/2024,2000,g  4.0,6.0
# From MPEC 2024-N80
2P/Encke,e,11.3386,334.0154,187.2846,2.218419,0.2982901,0.84696828,80.6783,07/19.0/2024,2000,g 11.5,6.0
# From  76, 1135
3D/Biela,e,7.8876,276.1865,192.2868,3.539351,0.1480194,0.76747989,309.3450,07/19.0/2024,2000,g 11.0,6.0
# From  76, 1135
3D-A/Biela,e,7.2154,276.6870,192.1215,3.549976,0.1473554,0.76711252,339.9414,07/19.0/2024,2000,g 11.0,6.0
# From  76, 1135
3D-B/Biela,e,7.8797,276.2012,192.2478,3.540102,0.1479723,0.76777783,309.0835,07/19.0/2024,2000,g 11.0,6.0
# From MPEC 2023-FK0
4P/Faye,e,8.0071,192.9220,207.1085,3.828870,0.1315522,0.57667765,137.3250,07/19.0/2024,2000,g  8.0,6.0
# From  27, 116
5D/Brorsen,e,18.6270,94.9055,20.3023,3.158256,0.1756035,0.83773909,80.5748,07/19.0/2024,2000,g 10.5,6.0
# From MPEC 2022-WD2
6P/d'Arrest,e,19.5015,138.9500,178.0799,3.497504,0.1506839,0.61198553,156.0972,07/19.0/2024,2000,g  7.5,16.0
# From MPEC 2023-A50
7P/Pons-Winnecke,e,22.4387,93.2777,172.4651,3.405097,0.1568591,0.63990365,180.2548,07/19.0/2024,2000,g 10.0,6.0
# From MPEC 2022-HC2
8P/Tuttle,e,54.9714,270.1748,207.4722,5.704144,0.0723466,0.82052010,76.3905,07/19.0/2024,2000,g  8.0,8.0
# From MPEC 2024-AF0
9P/Tempel,e,10.9663,67.3823,183.5469,3.227458,0.1699860,0.49811440,146.4774,07/19.0/2024,2000,g  5.5,10.0
# From MPEC 2024-GJ3
10P/Tempel,e,12.0289,117.8071,195.5190,3.062898,0.1838676,0.53751800,223.1703,07/19.0/2024,2000,g  5.0,10.0
# From MPEC 2023-A50
11P/Tempel-Swift-LINEAR,e,14.4348,238.8651,168.0323,3.283603,0.1656449,0.57757079,220.2494,07/19.0/2024,2000,g 17.0,4.0
# From MPEC 2024-NE4
12P/Pons-Brooks,e,74.1916,255.8555,198.9890,17.20385,0.0138123,0.95461432,1.2276,07/19.0/2024,2000,g  5.0,6.0
# From MPEC 2024-NE4
13P/Olbers,e,44.6658,85.8476,64.4178,16.84790,0.0142523,0.93023037,0.2701,07/19.0/2024,2000,g  5.0,6.0
# From MPEC 2024-LE0
14P/Wolf,e,27.9234,202.0364,159.1748,4.257109,0.1122101,0.35689750,271.1518,07/19.0/2024,2000,g  5.5,12.0
# From MPEC 2022-ED3
15P/Finlay,e,6.7922,13.7416,347.8754,3.510057,0.1498763,0.71652474,165.1107,07/19.0/2024,2000,g 12.0,4.0
# From MPEC 2022-X67
16P/Brooks,e,3.0103,138.8468,245.3422,3.661038,0.1407012,0.48605835,167.0794,07/19.0/2024,2000,g  7.5,10.0
# From MPEC 2023-J29
17P/Holmes,e,19.0138,326.6224,24.6210,3.640240,0.1419087,0.42678154,176.7545,07/19.0/2024,2000,g 10.0,6.0
# From  19, 80
18D/Perrine-Mrkos,e,17.657,158.469,238.233,3.88227,0.128847,0.5895390,354.689,07/19.0/2024,2000,g  9.0,4.0
# From MPEC 2024-JU4
19P/Borrelly,e,29.3165,74.2152,351.9849,3.607845,0.1438243,0.63790166,129.1370,07/19.0/2024,2000,g  4.5,10.0
# From MPEC 2024-LE0
21P/Giacobini-Zinner,e,32.0513,195.3369,172.9221,3.492853,0.1509850,0.71112584,322.3523,07/19.0/2024,2000,g  9.0,6.0
# From MPEC 2024-L77
22P/Kopff,e,4.7601,120.5072,162.9050,3.428611,0.1552482,0.55192853,132.4362,07/19.0/2024,2000,g  3.0,10.4
# From MPC 14747
23P/Brorsen-Metcalf,e,19.3886,311.4587,129.7090,16.93977,0.0141365,0.97254682,0.0000,05/19.4141/2059,2000,g 10.0,6.0
# From MPC110085
24P/Schaumasse,e,11.5060,78.3740,58.3941,4.055930,0.1206614,0.70802213,295.0375,07/19.0/2024,2000,g  6.5,14.0
# From NK 378
25D/Neujmin 2,e,2.8068,280.0047,244.7743,3.223502,0.1702990,0.55094387,309.5352,07/19.0/2024,2000,g 12.5,6.0
# From MPEC 2024-NE4
26P/Grigg-Skjellerup,e,22.4330,211.5389,2.1394,3.015538,0.1882161,0.64058462,38.8978,07/19.0/2024,2000,g 12.0,16.0
# From MPC 78188
27P/Crommelin,e,29.4380,250.7071,195.8324,9.179273,0.0354398,0.91954348,167.9153,07/19.0/2024,2000,g 12.0,8.0
# From MPEC 2024-GJ3
28P/Neujmin,e,14.3013,346.3835,347.4752,6.982925,0.0534131,0.77306909,65.4770,07/19.0/2024,2000,g  8.5,6.0
# From MPEC 2024-LE0
29P/Schwassmann-Wachmann,e,9.3580,312.4061,52.0830,6.054114,0.0661650,0.04389408,125.9143,07/19.0/2024,2000,g  4.0,4.0
# From MPEC 2024-GJ3
30P/Reinmuth,e,8.0532,117.2359,9.4852,3.734514,0.1365693,0.51435655,356.0150,07/19.0/2024,2000,g  9.5,6.0
# From MPEC 2023-RF3
31P/Schwassmann-Wachmann,e,4.5496,114.1116,17.8293,4.232832,0.1131768,0.19301316,208.4669,07/19.0/2024,2000,g  5.0,8.0
# From MPEC 2024-L77
32P/ComasSola,e,9.9207,54.5298,54.6718,4.551909,0.1014878,0.55521710,9.0720,07/19.0/2024,2000,g  6.5,8.0
# From MPEC 2023-J29
33P/Daniel,e,22.2957,66.2833,20.3282,4.095363,0.1189229,0.45243741,346.3097,07/19.0/2024,2000,g 10.0,12.0
# From  9, 314
34D/Gale,e,10.5827,57.8678,218.0431,5.014368,0.0877768,0.75787892,292.6368,07/19.0/2024,2000,g  9.0,4.0
# From  15, 452
35P/Herschel-Rigollet,e,64.954,356.458,29.098,28.5387,0.006465,0.9744157,0.000,03/26.2093/2092,2000,g  9.0,4.0
# From MPEC 2023-RF3
